AOR-E (EGNOS/PRN 120)   
1 24307U 96053A   17357.09855986 -.00000116  00000-0  00000+0 0  9990
2 24307   3.0112  76.7821 0007600 204.8695 190.1606  1.00271623 77967
CRE (WAAS/PRN 138)      
1 28868U 05036A   17356.80393206 -.00000065  00000-0  00000+0 0  9990
2 28868   0.0127   2.1237 0001494 320.0778 311.4430  1.00271212 45083
CRW (WAAS/PRN 135)      
1 28884U 05041A   17356.63868762  .00000088  00000-0  00000+0 0  9993
2 28884   0.0049   8.6487 0002419 267.2664 272.3843  1.00271219 44557
IOR-W (EGNOS/PRN 126)   
1 28899U 05044A   17356.60980744  .00000019  00000-0  00000+0 0  9998
2 28899   2.6189  14.8771 0003556 263.1783  96.7272  1.00271885 44431
MTSAT-2 (MSAS/PRN 137)  
1 28937U 06004A   17357.21315434 -.00000235  00000-0  00000+0 0  9995
2 28937   0.0246  42.6016 0004298 247.7183  23.3675  1.00262050 43286
QZS-1 (QZSS/PRN 183)    
1 37158U 10045A   17357.22659941 -.00000075  00000-0  00000+0 0  9997
2 37158  40.9737 156.5849 0751109 270.1807 245.9886  1.00274257 26651
GSAT-8 (GAGAN/PRN 127)  
1 37605U 11022A   17357.14720174  .00000094  00000-0  00000+0 0  9998
2 37605   0.0564 102.1390 0007678 167.1576 290.6380  1.00272159 24174
LUCH 5A (SDCM/PRN 140)  
1 37951U 11074B   17357.20695686 -.00000035  00000-0  00000+0 0  9991
2 37951   1.6629 163.0774 0004131 126.3287  44.0447  1.00269604 22125
SES-5 (EGNOS/PRN 136)   
1 38652U 12036A   17357.21403753  .00000043  00000-0  00000+0 0  9990
2 38652   0.0481 270.1185 0001864   1.4851 262.3872  1.00272660 20007
GSAT-10 (GAGAN/PRN 128) 
1 38779U 12051B   17356.51580053 -.00000156  00000-0  00000+0 0  9994
2 38779   0.0175  66.1866 0001469 195.0416  98.7627  1.00270961 19227
LUCH 5B (SDCM/PRN 125)  
1 38977U 12061A   17357.35288922 -.00000123  00000-0  00000+0 0  9992
2 38977   3.9181  73.2693 0004165 211.2371 278.3488  1.00271023 19119
ASTRA 5B (EGNOS/PRN 123)
1 39617U 14011B   17357.12688215  .00000164  00000-0  00000+0 0  9999
2 39617   0.0537 312.9362 0003135 296.7836 279.3061  1.00271945 13801
LUCH 5V (SDCM/PRN 141)  
1 39727U 14023A   17356.70349756 -.00000257  00000-0  00000+0 0  9995
2 39727   2.3355 299.0341 0003438   1.3516 139.0212  1.00268588531454
GSAT-15 (GAGAN/PRN 139) 
1 41028U 15065A   17356.48679234 -.00000249  00000-0  00000+0 0  9992
2 41028   0.0707 275.7678 0002594 327.5978 116.6155  1.00273698  7798
E 117 W B (WAAS/PRN 131)
1 41589U 16038B   17356.07273022 -.00000002  00000-0  00000-0 0  9993
2 41589   0.0103 160.3061 0000536 168.9709  30.7274  1.00271587  5632
QZS-2 (QZSS/PRN 184)    
1 42738U 17028A   17357.13910569 -.00000212  00000-0  00000+0 0  9994
2 42738  44.4874 286.9937 0741642 270.8503  80.7276  1.00280232  2088
